GLOBALSTAR M094         
1 39074U 13005C   24258.45795716 -.00000064  00000+0  22312-3 0  9990
2 39074  51.9964 301.6346 0000515  72.8079 287.2844 12.62268135537552
GLOBALSTAR M096         
1 39075U 13005D   24258.55036596 -.00000069  00000+0  19171-3 0  9990
2 39075  52.0103 349.6508 0000639  71.7826 288.3111 12.62269968536482
GLOBALSTAR M078         
1 39076U 13005E   24258.20703207 -.00000088  00000+0  88415-4 0  9992
2 39076  51.9867  75.5770 0000386 333.5178  26.5668 12.62274700535064
GLOBALSTAR M095         
1 39077U 13005F   24258.55032993 -.00000087  00000+0  94098-4 0  9991
2 39077  51.9796  71.8659 0000717  39.2098 320.8821 12.62264754534967
GLOBALSTAR M087         
1 52888U 22064A   24258.70110229 -.00000054  00000+0  14046-3 0  9995
2 52888  51.9743 256.2487 0009047 230.5236 129.4864 13.37585549109506
